NORAD_CAT_ID,OBJECT_NAME,OBJECT_TYPE,EPOCH,MEAN_MOTION,ECCENTRICITY,INCLINATION,RA_OF_ASC_NODE,ARG_OF_PERICENTER,MEAN_ANOMALY,BSTAR,MEAN_MOTION_DOT,MEAN_MOTION_DDOT,TLE_LINE0,TLE_LINE1,TLE_LINE2,SEMIMAJOR_AXIS,PERIOD,APOGEE,PERIGEE,DECAYED
52859.0,STARLINK-4196,PAYLOAD,2024-02-09 16:46:06,15.08838947,0.000131,53.216,191.3626,75.3111,284.8026,0.00026441,3.923e-05,0.0,0 STARLINK-4196,1 52859U 22062AF  24040.69869124  .00003923  00000-0  26441-3 0  9993,2 52859  53.2160 191.3626 0001310  75.3111 284.8026 15.08838947 91833,6917.884,95.438,540.655,538.842,0.0
52859.0,STARLINK-4196,PAYLOAD,2024-02-10 13:26:07,15.08852011,0.000139,53.2159,187.4938,89.1107,271.0045,0.00018724,2.694e-05,0.0,0 STARLINK-4196,1 52859U 22062AF  24041.55980778  .00002694  00000-0  18724-3 0  9997,2 52859  53.2159 187.4938 0001390  89.1107 271.0045 15.08852011 91476,6917.844,95.437,540.67,538.747,0.0
52859.0,STARLINK-4196,PAYLOAD,2024-02-10 16:36:53,15.08856417,0.0001503,53.2164,186.8986,79.0174,281.0987,0.00020352,2.954e-05,0.0,0 STARLINK-4196,1 52859U 22062AF  24041.69228522  .00002954  00000-0  20352-3 0  9993,2 52859  53.2164 186.8986 0001503  79.0174 281.0987 15.08856417 91498,6917.83,95.437,540.735,538.655,0.0
52859.0,STARLINK-4196,PAYLOAD,2024-02-11 14:52:17,15.08847921,0.0001481,53.2166,182.7359,95.2051,264.911,6.8395e-05,8.01e-06,0.0,0 STARLINK-4196,1 52859U 22062AF  24042.61964382  .00000801  00000-0  68395-4 0  9996,2 52859  53.2166 182.7359 0001481  95.2051 264.9110 15.08847921 91632,6917.856,95.437,540.746,538.697,0.0
52859.0,STARLINK-4196,PAYLOAD,2024-02-12 14:43:04,15.08844941,0.0001399,53.2157,178.2764,91.2545,268.8608,-1.7789e-05,-5.71e-06,0.0,0 STARLINK-4196,1 52859U 22062AF  24043.61324353 -.00000571  00000-0 -17789-4 0  9992,2 52859  53.2157 178.2764 0001399  91.2545 268.8608 15.08844941 91784,6917.865,95.437,540.698,538.762,0.0
52859.0,STARLINK-4196,PAYLOAD,2024-02-12 17:53:50,15.08847322,0.0001424,53.216,177.6822,86.8646,273.2509,3.906e-05,3.34e-06,0.0,0 STARLINK-4196,1 52859U 22062AF  24043.74572243  .00000334  00000-0  39060-4 0  9990,2 52859  53.2160 177.6822 0001424  86.8646 273.2509 15.08847322 92290,6917.858,95.437,540.708,538.738,0.0
52859.0,STARLINK-4196,PAYLOAD,2024-02-13 09:47:42,15.08826363,0.0001447,53.216,174.7127,101.0661,259.0494,-5.8213e-05,-1.214e-05,0.0,0 STARLINK-4196,1 52859U 22062AF  24044.40813608 -.00001214  00000-0 -58213-4 0  9998,2 52859  53.2160 174.7127 0001447 101.0661 259.0494 15.08826363 92396,6917.922,95.438,540.788,538.786,0.0
52859.0,STARLINK-4196,PAYLOAD,2024-02-13 14:33:52,15.08834695,0.0001631,53.2164,173.8205,85.4367,274.6812,-5.0631e-05,-1.094e-05,0.0,0 STARLINK-4196,1 52859U 22062AF  24044.60685346 -.00001094  00000-0 -50631-4 0  9998,2 52859  53.2164 173.8205 0001631  85.4367 274.6812 15.08834695 91933,6917.897,95.438,540.89,538.633,0.0
52859.0,STARLINK-4196,PAYLOAD,2024-02-13 16:09:15,15.08836801,0.0001546,53.2159,173.5221,97.0657,263.0511,0.00011262,1.505e-05,0.0,0 STARLINK-4196,1 52859U 22062AF  24044.67309360  .00001505  00000-0  11262-3 0  9995,2 52859  53.2159 173.5221 0001546  97.0657 263.0511 15.08836801 92433,6917.89,95.438,540.825,538.686,0.0
52859.0,STARLINK-4196,PAYLOAD,2024-02-14 14:24:38,15.08855212,0.0001446,53.2151,169.3595,94.4953,265.6205,0.00028068,4.184e-05,0.0,0 STARLINK-4196,1 52859U 22062AF  24045.60044356  .00004184  00000-0  28068-3 0  9998,2 52859  53.2151 169.3595 0001446  94.4953 265.6205 15.08855212 92087,6917.834,95.437,540.699,538.699,0.0
52859.0,STARLINK-4196,PAYLOAD,2024-02-14 17:35:23,15.08871844,0.0001448,53.2159,168.7659,78.0125,282.1029,0.00053403,8.229e-05,0.0,0 STARLINK-4196,1 52859U 22062AF  24045.73291605  .00008229  00000-0  53403-3 0  9998,2 52859  53.2159 168.7659 0001448  78.0125 282.1029 15.08871844 92593,6917.783,95.436,540.65,538.646,0.0
52859.0,STARLINK-4196,PAYLOAD,2024-02-15 01:32:21,15.08832452,0.0002126,53.2165,167.2781,79.2676,280.8555,-5.8783e-05,-1.224e-05,0.0,0 STARLINK-4196,1 52859U 22062AF  24046.06413600 -.00001224  00000-0 -58783-4 0  9993,2 52859  53.2165 167.2781 0002126  79.2676 280.8555 15.08832452 92645,6917.903,95.438,541.239,538.298,0.0
52859.0,STARLINK-4196,PAYLOAD,2024-02-15 14:15:26,15.08833351,0.0001653,53.2155,164.8986,83.4809,276.6371,-3.3954e-05,-8.28e-06,0.0,0 STARLINK-4196,1 52859U 22062AF  24046.59405665 -.00000828  00000-0 -33954-4 0  9995,2 52859  53.2155 164.8986 0001653  83.4809 276.6371 15.08833351 92236,6917.901,95.438,540.909,538.622,0.0
52859.0,STARLINK-4196,PAYLOAD,2024-02-15 17:26:12,15.08835914,0.0001525,53.2148,164.3029,88.7992,271.3175,2.4945e-05,1.09e-06,0.0,0 STARLINK-4196,1 52859U 22062AF  24046.72653612  .00000109  00000-0  24945-4 0  9997,2 52859  53.2148 164.3029 0001525  88.7992 271.3175 15.08835914 92253,6917.893,95.438,540.813,538.703,0.0
52859.0,STARLINK-4196,PAYLOAD,2024-02-16 12:30:49,15.08861682,0.0001414,53.2155,160.7354,78.5803,281.5348,0.00057408,8.866e-05,0.0,0 STARLINK-4196,1 52859U 22062AF  24047.52140588  .00008866  00000-0  57408-3 0  9996,2 52859  53.2155 160.7354 0001414  78.5803 281.5348 15.08861682 92860,6917.814,95.436,540.657,538.701,0.0
52859.0,STARLINK-4196,PAYLOAD,2024-02-16 14:06:12,15.08866036,0.0001404,53.2154,160.4378,78.7282,281.3868,0.0010672,0.00016749,0.0,0 STARLINK-4196,1 52859U 22062AF  24047.58764710  .00016749  00000-0  10672-2 0  9991,2 52859  53.2154 160.4378 0001404  78.7282 281.3868 15.08866036 92384,6917.801,95.436,540.637,538.695,0.0
52859.0,STARLINK-4196,PAYLOAD,2024-02-17 12:21:36,15.08829316,0.0001179,53.2154,156.2748,86.0321,274.0806,0.0010944,0.00017167,0.0,0 STARLINK-4196,1 52859U 22062AF  24048.51501106  .00017167  00000-0  10944-2 0  9990,2 52859  53.2154 156.2748 0001179  86.0321 274.0806 15.08829316 93015,6917.913,95.438,540.594,538.962,0.0
52859.0,STARLINK-4196,PAYLOAD,2024-02-17 13:57:00,15.0882958,0.0001129,53.2155,155.9772,80.0581,280.0539,0.0012589,0.00019798,0.0,0 STARLINK-4196,1 52859U 22062AF  24048.58125182  .00019798  00000-0  12589-2 0  9992,2 52859  53.2155 155.9772 0001129  80.0581 280.0539 15.08829580 92535,6917.912,95.438,540.558,538.996,0.0
52859.0,STARLINK-4196,PAYLOAD,2024-02-18 12:12:24,15.08840621,0.0001419,53.2172,151.8197,95.5363,264.5791,0.00054948,8.468e-05,0.0,0 STARLINK-4196,1 52859U 22062AF  24049.50861691  .00008468  00000-0  54948-3 0  9995,2 52859  53.2172 151.8197 0001419  95.5363 264.5791 15.08840621 93167,6917.878,95.438,540.725,538.762,0.0
52859.0,STARLINK-4196,PAYLOAD,2024-02-18 13:47:47,15.08843492,0.0001482,53.2167,151.5221,97.8956,262.2204,0.00070294,0.00010918,0.0,0 STARLINK-4196,1 52859U 22062AF  24049.57485541  .00010918  00000-0  70294-3 0  9993,2 52859  53.2167 151.5221 0001482  97.8956 262.2204 15.08843492 92688,6917.87,95.437,540.76,538.709,0.0
52859.0,STARLINK-4196,PAYLOAD,2024-02-19 12:03:11,15.08835524,0.0001574,53.2155,147.3585,102.9189,257.1979,0.00012761,1.743e-05,0.0,0 STARLINK-4196,1 52859U 22062AF  24050.50222109  .00001743  00000-0  12761-3 0  9998,2 52859  53.2155 147.3585 0001574 102.9189 257.1979 15.08835524 93319,6917.894,95.438,540.848,538.67,0.0
52859.0,STARLINK-4196,PAYLOAD,2024-02-19 16:49:21,15.08842869,0.0001479,53.2166,146.4613,94.787,265.3291,0.00026586,3.946e-05,0.0,0 STARLINK-4196,1 52859U 22062AF  24050.70093822  .00003946  00000-0  26586-3 0  9995,2 52859  53.2166 146.4613 0001479  94.7870 265.3291 15.08842869 92858,6917.872,95.437,540.76,538.713,0.0
52859.0,STARLINK-4196,PAYLOAD,2024-02-20 13:29:22,15.08836086,0.0001507,53.2156,142.5991,93.2124,266.904,4.604e-05,4.45e-06,0.0,0 STARLINK-4196,1 52859U 22062AF  24051.56206340  .00000445  00000-0  46040-4 0  9990,2 52859  53.2156 142.5991 0001507  93.2124 266.9040 15.08836086 92988,6917.892,95.438,540.8,538.715,0.0
52859.0,STARLINK-4196,PAYLOAD,2024-02-21 13:20:08,15.08851852,0.0001497,53.2161,138.1388,93.4903,266.6261,0.00033692,5.08e-05,0.0,0 STARLINK-4196,1 52859U 22062AF  24052.55565875  .00005080  00000-0  33692-3 0  9999,2 52859  53.2161 138.1388 0001497  93.4903 266.6261 15.08851852 93138,6917.844,95.437,540.745,538.674,0.0
52859.0,STARLINK-4196,PAYLOAD,2024-02-22 11:35:33,15.0884345,0.0001618,53.2156,133.9748,81.4988,278.6187,0.00019906,2.882e-05,0.0,0 STARLINK-4196,1 52859U 22062AF  24053.48302294  .00002882  00000-0  19906-3 0  9995,2 52859  53.2156 133.9748 0001618  81.4988 278.6187 15.08843450 93764,6917.87,95.437,540.854,538.616,0.0
52859.0,STARLINK-4196,PAYLOAD,2024-02-23 11:26:19,15.08853418,0.0001631,53.216,129.5132,83.1017,277.016,0.00036836,5.581e-05,0.0,0 STARLINK-4196,1 52859U 22062AF  24054.47661858  .00005581  00000-0  36836-3 0  9999,2 52859  53.2160 129.5132 0001631  83.1017 277.0160 15.08853418 93426,6917.839,95.437,540.833,538.576,0.0
52859.0,STARLINK-4196,PAYLOAD,2024-02-23 14:37:05,15.08858988,0.0001655,53.2159,128.9181,82.635,277.483,0.00051175,7.87e-05,0.0,0 STARLINK-4196,1 52859U 22062AF  24054.60909663  .00007870  00000-0  51175-3 0  9999,2 52859  53.2159 128.9181 0001655  82.6350 277.4830 15.08858988 93932,6917.822,95.436,540.832,538.542,0.0
52859.0,STARLINK-4196,PAYLOAD,2024-02-24 04:55:34,15.08840676,0.0001436,53.2159,126.2423,77.7824,282.3329,0.00010576,1.396e-05,0.0,0 STARLINK-4196,1 52859U 22062AF  24055.20526228  .00001396  00000-0  10576-3 0  9995,2 52859  53.2159 126.2423 0001436  77.7824 282.3329 15.08840676 94024,6917.878,95.438,540.737,538.75,0.0
52859.0,STARLINK-4196,PAYLOAD,2024-02-24 11:17:07,15.08842285,0.0001529,53.2158,125.0526,83.929,276.1876,0.00014991,2.099e-05,0.0,0 STARLINK-4196,1 52859U 22062AF  24055.47022146  .00002099  00000-0  14991-3 0  9990,2 52859  53.2158 125.0526 0001529  83.9290 276.1876 15.08842285 93578,6917.873,95.437,540.796,538.681,0.0
52859.0,STARLINK-4196,PAYLOAD,2024-02-25 11:07:54,15.08850032,0.000158,53.2162,120.5923,87.9623,272.155,0.00037271,5.65e-05,0.0,0 STARLINK-4196,1 52859U 22062AF  24056.46382065  .00005650  00000-0  37271-3 0  9991,2 52859  53.2162 120.5923 0001580  87.9623 272.1550 15.08850032 94211,6917.85,95.437,540.808,538.622,0.0
